NORAD_CAT_ID,OBJECT_NAME,OBJECT_TYPE,EPOCH,MEAN_MOTION,ECCENTRICITY,INCLINATION,RA_OF_ASC_NODE,ARG_OF_PERICENTER,MEAN_ANOMALY,BSTAR,MEAN_MOTION_DOT,MEAN_MOTION_DDOT,TLE_LINE0,TLE_LINE1,TLE_LINE2,SEMIMAJOR_AXIS,PERIOD,APOGEE,PERIGEE,DECAYED
52584.0,STARLINK-3922,PAYLOAD,2024-01-03 11:20:00,15.08837752,0.000146,53.2187,93.4782,114.7303,245.3841,-5.3719e-05,-1.143e-05,0.0,0 STARLINK-3922,1 52584U 22051BA  24003.47222685 -.00001143  00000-0 -53719-4 0  9999,2 52584  53.2187  93.4782 0001460 114.7303 245.3841 15.08837752 91457,6917.887,95.438,540.762,538.742,0.0
52584.0,STARLINK-3922,PAYLOAD,2024-01-03 12:55:23,15.08837901,0.0001387,53.2188,93.181,110.0335,250.0806,-4.5277e-05,-1.008e-05,0.0,0 STARLINK-3922,1 52584U 22051BA  24003.53846663 -.00001008  00000-0 -45277-4 0  9994,2 52584  53.2188  93.1810 0001387 110.0335 250.0806 15.08837901 91392,6917.887,95.438,540.711,538.792,0.0
52584.0,STARLINK-3922,PAYLOAD,2024-01-04 11:10:47,15.08843889,0.0001143,53.2177,89.0221,95.8702,264.2421,4.5441e-05,4.36e-06,0.0,0 STARLINK-3922,1 52584U 22051BA  24004.46582226  .00000436  00000-0  45441-4 0  9994,2 52584  53.2177  89.0221 0001143  95.8702 264.2421 15.08843889 91604,6917.869,95.437,540.524,538.943,0.0
52584.0,STARLINK-3922,PAYLOAD,2024-01-04 14:21:32,15.08849233,0.0001157,53.2181,88.4263,95.1137,264.9987,6.8238e-05,7.99e-06,0.0,0 STARLINK-3922,1 52584U 22051BA  24004.59829789  .00000799  00000-0  68238-4 0  9997,2 52584  53.2181  88.4263 0001157  95.1137 264.9987 15.08849233 91555,6917.852,95.437,540.518,538.917,0.0
52584.0,STARLINK-3922,PAYLOAD,2024-01-05 12:36:58,15.08835461,0.0001296,53.2179,84.2654,79.0151,281.0987,4.3154e-05,3.99e-06,0.0,0 STARLINK-3922,1 52584U 22051BA  24005.52567197  .00000399  00000-0  43154-4 0  9999,2 52584  53.2179  84.2654 0001296  79.0151 281.0987 15.08835461 91762,6917.894,95.438,540.656,538.863,0.0
52584.0,STARLINK-3922,PAYLOAD,2024-01-05 14:12:21,15.08836381,0.0001304,53.2181,83.9676,81.6274,278.4866,4.9807e-05,5.05e-06,0.0,0 STARLINK-3922,1 52584U 22051BA  24005.59191132  .00000505  00000-0  49807-4 0  9998,2 52584  53.2181  83.9676 0001304  81.6274 278.4866 15.08836381 91702,6917.891,95.438,540.659,538.854,0.0
52584.0,STARLINK-3922,PAYLOAD,2024-01-06 04:30:49,15.08840237,0.0001335,53.2182,81.2917,78.5418,281.5724,-2.4133e-06,-3.26e-06,0.0,0 STARLINK-3922,1 52584U 22051BA  24006.18807224 -.00000326  00000-0 -24133-5 0  9999,2 52584  53.2182  81.2917 0001335  78.5418 281.5724 15.08840237 91861,6917.88,95.438,540.668,538.821,0.0
52584.0,STARLINK-3922,PAYLOAD,2024-01-06 12:27:44,15.08845511,0.0001392,53.2185,79.8054,74.6435,285.471,5.2664e-05,5.5e-06,0.0,0 STARLINK-3922,1 52584U 22051BA  24006.51926706  .00000550  00000-0  52664-4 0  9999,2 52584  53.2185  79.8054 0001392  74.6435 285.4710 15.08845511 91912,6917.864,95.437,540.692,538.766,0.0
52584.0,STARLINK-3922,PAYLOAD,2024-01-06 14:03:07,15.08849976,0.0001346,53.2182,79.5074,81.2465,278.8679,6.5493e-05,7.55e-06,0.0,0 STARLINK-3922,1 52584U 22051BA  24006.58550337  .00000755  00000-0  65493-4 0  9990,2 52584  53.2182  79.5074 0001346  81.2465 278.8679 15.08849976 91924,6917.85,95.437,540.646,538.784,0.0
52584.0,STARLINK-3922,PAYLOAD,2024-01-07 04:21:36,15.08837815,0.0001259,53.2181,76.8292,109.8374,250.2754,3.3194e-07,-2.83e-06,0.0,0 STARLINK-3922,1 52584U 22051BA  24007.18167180 -.00000283  00000-0  33194-6 0  9999,2 52584  53.2181  76.8292 0001259 109.8374 250.2754 15.08837815 92012,6917.887,95.438,540.623,538.881,0.0
52584.0,STARLINK-3922,PAYLOAD,2024-01-07 10:43:08,15.08841137,0.0001544,53.2185,75.6426,89.3718,270.7451,4.7065e-05,4.61e-06,0.0,0 STARLINK-3922,1 52584U 22051BA  24007.44662996  .00000461  00000-0  47065-4 0  9990,2 52584  53.2185  75.6426 0001544  89.3718 270.7451 15.08841137 92050,6917.877,95.437,540.81,538.674,0.0
52584.0,STARLINK-3922,PAYLOAD,2024-01-08 10:33:55,15.08844699,0.0001553,53.2186,71.1823,91.3431,268.774,2.6972e-05,1.41e-06,0.0,0 STARLINK-3922,1 52584U 22051BA  24008.44022749  .00000141  00000-0  26972-4 0  9996,2 52584  53.2186  71.1823 0001553  91.3431 268.7740 15.08844699 92209,6917.866,95.437,540.805,538.657,0.0
52584.0,STARLINK-3922,PAYLOAD,2024-01-09 10:24:42,15.08841606,0.0001689,53.2192,66.7223,104.0194,256.0986,3.8458e-05,3.24e-06,0.0,0 STARLINK-3922,1 52584U 22051BA  24009.43382791  .00000324  00000-0  38458-4 0  9997,2 52584  53.2192  66.7223 0001689 104.0194 256.0986 15.08841606 92351,6917.875,95.437,540.909,538.572,0.0
52584.0,STARLINK-3922,PAYLOAD,2024-01-09 13:35:28,15.08845899,0.0001586,53.2186,66.1253,100.5955,259.5216,5.1294e-05,5.29e-06,0.0,0 STARLINK-3922,1 52584U 22051BA  24009.56630459  .00000529  00000-0  51294-4 0  9998,2 52584  53.2186  66.1253 0001586 100.5955 259.5216 15.08845899 92300,6917.862,95.437,540.825,538.63,0.0
52584.0,STARLINK-3922,PAYLOAD,2024-01-10 10:15:29,15.08839024,0.0001599,53.2187,62.2557,95.7375,264.38,2.6165e-05,1.28e-06,0.0,0 STARLINK-3922,1 52584U 22051BA  24010.42743005  .00000128  00000-0  26165-4 0  9991,2 52584  53.2187  62.2557 0001599  95.7375 264.3800 15.08839024 92508,6917.883,95.438,540.855,538.642,0.0
52584.0,STARLINK-3922,PAYLOAD,2024-01-10 13:26:16,15.08838707,0.000163,53.2188,61.6616,98.2191,261.8986,2.45e-05,1.02e-06,0.0,0 STARLINK-3922,1 52584U 22051BA  24010.55991049  .00000102  00000-0  24500-4 0  9991,2 52584  53.2188  61.6616 0001630  98.2191 261.8986 15.08838707 92524,6917.884,95.438,540.877,538.622,0.0
52584.0,STARLINK-3922,PAYLOAD,2024-01-11 03:44:44,15.0882326,0.0001619,53.2188,58.9853,103.0186,257.0987,0.000207,3.006e-05,0.0,0 STARLINK-3922,1 52584U 22051BA  24011.15607289  .00003006  00000-0  20700-3 0  9991,2 52584  53.2188  58.9853 0001619 103.0186 257.0987 15.08823260 92618,6917.932,95.439,540.917,538.677,0.0
52584.0,STARLINK-3922,PAYLOAD,2024-01-11 08:30:54,15.08827742,0.0001555,53.2185,58.0931,96.4145,263.7025,0.00020825,3.027e-05,0.0,0 STARLINK-3922,1 52584U 22051BA  24011.35479200  .00003027  00000-0  20825-3 0  9994,2 52584  53.2185  58.0931 0001555  96.4145 263.7025 15.08827742 92641,6917.918,95.438,540.859,538.707,0.0
52584.0,STARLINK-3922,PAYLOAD,2024-01-12 09:57:05,15.08796678,0.000176,53.2184,53.3367,83.2867,276.8325,0.00058892,9.086e-05,0.0,0 STARLINK-3922,1 52584U 22051BA  24012.41464382  .00009086  00000-0  58892-3 0  9993,2 52584  53.2184  53.3367 0001760  83.2867 276.8325 15.08796678 92803,6918.013,95.44,541.095,538.66,0.0
52584.0,STARLINK-3922,PAYLOAD,2024-01-13 11:23:14,15.0884508,0.0001906,53.2193,48.582,85.2576,274.8634,2.9351e-05,1.79e-06,0.0,0 STARLINK-3922,1 52584U 22051BA  24013.47447613  .00000179  00000-0  29351-4 0  9991,2 52584  53.2193  48.5820 0001906  85.2576 274.8634 15.08845080 92964,6917.865,95.437,541.048,538.411,0.0
52584.0,STARLINK-3922,PAYLOAD,2024-01-14 11:14:01,15.08845298,0.0001996,53.2205,44.1152,76.9204,283.2011,0.00010423,1.371e-05,0.0,0 STARLINK-3922,1 52584U 22051BA  24014.46807610  .00001371  00000-0  10423-3 0  9992,2 52584  53.2205  44.1152 0001996  76.9204 283.2011 15.08845298 93114,6917.864,95.437,541.11,538.348,0.0
52584.0,STARLINK-3922,PAYLOAD,2024-01-15 01:32:30,15.08837569,0.0001394,53.2187,41.4387,106.4626,253.6519,-7.6232e-06,-4.09e-06,0.0,0 STARLINK-3922,1 52584U 22051BA  24015.06424300 -.00000409  00000-0 -76232-5 0  9995,2 52584  53.2187  41.4387 0001394 106.4626 253.6519 15.08837569 93208,6917.888,95.438,540.717,538.788,0.0
52584.0,STARLINK-3922,PAYLOAD,2024-01-15 07:54:02,15.08844789,0.000178,53.2191,40.2559,98.2872,261.8322,4.9823e-05,5.05e-06,0.0,0 STARLINK-3922,1 52584U 22051BA  24015.32919736  .00000505  00000-0  49823-4 0  9996,2 52584  53.2191  40.2559 0001780  98.2872 261.8322 15.08844789 93240,6917.866,95.437,540.962,538.499,0.0
52584.0,STARLINK-3922,PAYLOAD,2024-01-16 10:55:36,15.08844663,0.0001709,53.2192,35.1979,86.8176,273.3012,-2.7949e-05,-7.33e-06,0.0,0 STARLINK-3922,1 52584U 22051BA  24016.45528036 -.00000733  00000-0 -27949-4 0  9990,2 52584  53.2192  35.1979 0001709  86.8176 273.3012 15.08844663 93415,6917.866,95.437,540.913,538.549,0.0
52584.0,STARLINK-3922,PAYLOAD,2024-01-17 04:24:50,15.08841997,0.000154,53.2168,31.927,100.6635,259.4531,-1.5491e-06,-3.13e-06,0.0,0 STARLINK-3922,1 52584U 22051BA  24017.18392111 -.00000313  00000-0 -15491-5 0  9998,2 52584  53.2168  31.9270 0001540 100.6635 259.4531 15.08841997 93524,6917.874,95.437,540.805,538.674,0.0
52584.0,STARLINK-3922,PAYLOAD,2024-01-17 06:00:14,15.08841321,0.0001549,53.2179,31.6321,87.836,272.2809,2.3531e-05,8.7e-07,0.0,0 STARLINK-3922,1 52584U 22051BA  24017.25016232  .00000087  00000-0  23531-4 0  9992,2 52584  53.2179  31.6321 0001549  87.8360 272.2809 15.08841321 93533,6917.876,95.437,540.813,538.67,0.0
52584.0,STARLINK-3922,PAYLOAD,2024-01-18 04:15:38,15.08838521,0.0001419,53.2179,27.4708,82.9995,277.1158,2.9662e-05,1.84e-06,0.0,0 STARLINK-3922,1 52584U 22051BA  24018.17752717  .00000184  00000-0  29662-4 0  9998,2 52584  53.2179  27.4708 0001419  82.9995 277.1158 15.08838521 93675,6917.885,95.438,540.732,538.768,0.0
52584.0,STARLINK-3922,PAYLOAD,2024-01-18 07:26:24,15.08841923,0.0001418,53.2177,26.8761,89.7252,270.3902,5.4959e-05,5.87e-06,0.0,0 STARLINK-3922,1 52584U 22051BA  24018.31000442  .00000587  00000-0  54959-4 0  9999,2 52584  53.2177  26.8761 0001418  89.7252 270.3902 15.08841923 93699,6917.875,95.437,540.72,538.759,0.0
52584.0,STARLINK-3922,PAYLOAD,2024-01-19 04:06:25,15.08841537,0.0001485,53.2176,23.0091,98.8964,261.2197,7.0868e-05,8.4e-06,0.0,0 STARLINK-3922,1 52584U 22051BA  24019.17112538  .00000840  00000-0  70868-4 0  9993,2 52584  53.2176  23.0091 0001485  98.8964 261.2197 15.08841537 93829,6917.876,95.437,540.768,538.713,0.0
52584.0,STARLINK-3922,PAYLOAD,2024-01-19 05:41:48,15.08842643,0.0001491,53.2179,22.7141,95.5735,264.5428,9.6762e-05,1.252e-05,0.0,0 STARLINK-3922,1 52584U 22051BA  24019.23736476  .00001252  00000-0  96762-4 0  9992,2 52584  53.2179  22.7141 0001491  95.5735 264.5428 15.08842643 93834,6917.872,95.437,540.769,538.706,0.0
